{"type": "FeatureCollection", "features": [ {"type": "Feature", "properties": {"norad_id": 32289, "name": "YAOGAN-3", "group": "resource", "lat": 62.93604369561579, "lon": 10.19502291766567, "alt_km": 591.2225985087116, "timestamp": "2025-12-25T07:41:09.379528+00:00", "meta": {"OBJECT_NAME": "YAOGAN-3", "OBJECT_ID": "2007-055A", "EPOCH": "2025-12-24T23:20:26.140128", "MEAN_MOTION": 14.89915143, "ECCENTRICITY": 0.00013013, "INCLINATION": 97.8354, "RA_OF_ASC_NODE": 25.4861, "ARG_OF_PERICENTER": 85.869, "MEAN_ANOMALY": 274.2676, "EPHEMERIS_TYPE": 0, "CLASSIFICATION_TYPE": "U", "NORAD_CAT_ID": 32289, "ELEMENT_SET_NO": 999, "REV_AT_EPOCH": 97991, "BSTAR": 0.00019314377, "MEAN_MOTION_DOT": 1.803e-05, "MEAN_MOTION_DDOT": 0}, "tle": {"line1": "1 32289U 07055A   25358.97252477  .00001803  00000+0  19314-3 0  9999", "line2": "2 32289  97.8354  25.4861 0001301  85.8690 274.2676 14.89915143979913"}}, "geometry": {"type": "Point", "coordinates": [10.19502291766567, 62.93604369561579]}}, {"type": "Feature", "properties": {"norad_id": 32376, "name": "COSMO-SKYMED 2", "group": "resource", "lat": -6.672016169662367, "lon": -178.6171287392785, "alt_km": 626.340245818149, "timestamp": "2025-12-25T07:41:09.379539+00:00", "meta": {"OBJECT_NAME": "COSMO-SKYMED 2", "OBJECT_ID": "2007-059A", "EPOCH": "2025-12-24T23:36:54.004032", "MEAN_MOTION": 14.82157313, "ECCENTRICITY": 0.00013101, "INCLINATION": 97.8806, "RA_OF_ASC_NODE": 180.1234, "ARG_OF_PERICENTER": 82.4144, "MEAN_ANOMALY": 277.7218, "EPHEMERIS_TYPE": 0, "CLASSIFICATION_TYPE": "U", "NORAD_CAT_ID": 32376, "ELEMENT_SET_NO": 999, "REV_AT_EPOCH": 97619, "BSTAR": 7.6357743e-05, "MEAN_MOTION_DOT": 5.56e-06, "MEAN_MOTION_DDOT": 0}, "tle": {"line1": "1 32376U 07059A   25358.98395838  .00000556  00000+0  76358-4 0  9996", "line2": "2 32376  97.8806 180.1234 0001310  82.4144 277.7218 14.82157313976199"}}, "geometry": {"type": "Point", "coordinates": [-178.6171287392785, -6.672016169662367]}}, {"type": "Feature", "properties": {"norad_id": 32382, "name": "RADARSAT-2", "group": "resource", "lat": 73.97762449225083, "lon": -144.55706268649865, "alt_km": 783.9342476606253, "timestamp": "2025-12-25T07:41:09.379549+00:00", "meta": {"OBJECT_NAME": "RADARSAT-2", "OBJECT_ID": "2007-061A", "EPOCH": "2025-12-24T22:48:25.277184", "MEAN_MOTION": 14.29984279, "ECCENTRICITY": 0.0001114, "INCLINATION": 98.5795, "RA_OF_ASC_NODE": 3.3624, "ARG_OF_PERICENTER": 86.235, "MEAN_ANOMALY": 273.896, "EPHEMERIS_TYPE": 0, "CLASSIFICATION_TYPE": "U", "NORAD_CAT_ID": 32382, "ELEMENT_SET_NO": 999, "REV_AT_EPOCH": 94105, "BSTAR": -4.304362e-05, "MEAN_MOTION_DOT": -1.55e-06, "MEAN_MOTION_DDOT": 0}, "tle": {"line1": "1 32382U 07061A   25358.95029256 -.00000155  00000+0 -43044-4 0  9994", "line2": "2 32382  98.5795   3.3624 0001114  86.2350 273.8960 14.29984279941051"}}, "geometry": {"type": "Point", "coordinates": [-144.55706268649865, 73.97762449225083]}}, {"type": "Feature", "properties": {"norad_id": 32783, "name": "CARTOSAT-2A", "group": "resource", "lat": -11.977313687347971, "lon": 50.41373153824991, "alt_km": 630.1191328849782, "timestamp": "2025-12-25T07:41:09.379560+00:00", "meta": {"OBJECT_NAME": "CARTOSAT-2A", "OBJECT_ID": "2008-021A", "EPOCH": "2025-12-24T23:37:17.707008", "MEAN_MOTION": 14.78953791, "ECCENTRICITY": 0.00109483, "INCLINATION": 97.7909, "RA_OF_ASC_NODE": 48.4239, "ARG_OF_PERICENTER": 323.9248, "MEAN_ANOMALY": 36.1224, "EPHEMERIS_TYPE": 0, "CLASSIFICATION_TYPE": "U", "NORAD_CAT_ID": 32783, "ELEMENT_SET_NO": 999, "REV_AT_EPOCH": 95305, "BSTAR": 0.00014373861, "MEAN_MOTION_DOT": 1.011e-05, "MEAN_MOTION_DDOT": 0}, "tle": {"line1": "1 32783U 08021A   25358.98423272  .00001011  00000+0  14374-3 0  9998", "line2": "2 32783  97.7909  48.4239 0010948 323.9248  36.1224 14.78953791953053"}}, "geometry": {"type": "Point", "coordinates": [50.41373153824991, -11.977313687347971]}}, {"type": "Feature", "properties": {"norad_id": 33320, "name": "HUANJING 1A (HJ-1A)", "group": "resource", "lat": 54.63036917887624, "lon": -23.828112161355058, "alt_km": 606.8663736160588, "timestamp": "2025-12-25T07:41:09.379570+00:00", "meta": {"OBJECT_NAME": "HUANJING 1A (HJ-1A)", "OBJECT_ID": "2008-041A", "EPOCH": "2025-12-24T23:20:37.272768", "MEAN_MOTION": 14.83429291, "ECCENTRICITY": 0.00192354, "INCLINATION": 97.6549, "RA_OF_ASC_NODE": 346.7603, "ARG_OF_PERICENTER": 355.3207, "MEAN_ANOMALY": 4.7825, "EPHEMERIS_TYPE": 0, "CLASSIFICATION_TYPE": "U", "NORAD_CAT_ID": 33320, "ELEMENT_SET_NO": 999, "REV_AT_EPOCH": 93257, "BSTAR": 0.0001369651, "MEAN_MOTION_DOT": 1.077e-05, "MEAN_MOTION_DDOT": 0}, "tle": {"line1": "1 33320U 08041A   25358.97265362  .00001077  00000+0  13697-3 0  9990", "line2": "2 33320  97.6549 346.7603 0019235 355.3207   4.7825 14.83429291932572"}}, "geometry": {"type": "Point", "coordinates": [-23.828112161355058, 54.63036917887624]}}, {"type": "Feature", "properties": {"norad_id": 33321, "name": "HUANJING 1B (HJ-1B)", "group": "resource", "lat": -68.70187650047166, "lon": 150.61609968274757, "alt_km": 649.4080455451585, "timestamp": "2025-12-25T07:41:09.379581+00:00", "meta": {"OBJECT_NAME": "HUANJING 1B (HJ-1B)", "OBJECT_ID": "2008-041B", "EPOCH": "2025-12-25T00:05:01.820256", "MEAN_MOTION": 14.82852336, "ECCENTRICITY": 0.00376933, "INCLINATION": 97.6405, "RA_OF_ASC_NODE": 350.4547, "ARG_OF_PERICENTER": 36.8761, "MEAN_ANOMALY": 323.5034, "EPHEMERIS_TYPE": 0, "CLASSIFICATION_TYPE": "U", "NORAD_CAT_ID": 33321, "ELEMENT_SET_NO": 999, "REV_AT_EPOCH": 93259, "BSTAR": 0.00018639751, "MEAN_MOTION_DOT": 1.476e-05, "MEAN_MOTION_DDOT": 0}, "tle": {"line1": "1 33321U 08041B   25359.00349329  .00001476  00000+0  18640-3 0  9998", "line2": "2 33321  97.6405 350.4547 0037693  36.8761 323.5034 14.82852336932592"}}, "geometry": {"type": "Point", "coordinates": [150.61609968274757, -68.70187650047166]}}, {"type": "Feature", "properties": {"norad_id": 33331, "name": "GEOEYE 1", "group": "resource", "lat": 41.44512198567195, "lon": -102.31254084795924, "alt_km": 674.7667061751463, "timestamp": "2025-12-25T07:41:09.379591+00:00", "meta": {"OBJECT_NAME": "GEOEYE 1", "OBJECT_ID": "2008-042A", "EPOCH": "2025-12-24T21:13:14.868768", "MEAN_MOTION": 14.64716096, "ECCENTRICITY": 0.00029879, "INCLINATION": 98.1237, "RA_OF_ASC_NODE": 70.0111, "ARG_OF_PERICENTER": 232.1812, "MEAN_ANOMALY": 127.9121, "EPHEMERIS_TYPE": 0, "CLASSIFICATION_TYPE": "U", "NORAD_CAT_ID": 33331, "ELEMENT_SET_NO": 999, "REV_AT_EPOCH": 92463, "BSTAR": 0.00012319795, "MEAN_MOTION_DOT": 6.08e-06, "MEAN_MOTION_DDOT": 0}, "tle": {"line1": "1 33331U 08042A   25358.88419987  .00000608  00000+0  12320-3 0  9998", "line2": "2 33331  98.1237  70.0111 0002987 232.1812 127.9121 14.64716096924631"}}, "geometry": {"type": "Point", "coordinates": [-102.31254084795924, 41.44512198567195]}}, {"type": "Feature", "properties": {"norad_id": 33396, "name": "THEOS", "group": "resource", "lat": 42.63941230299359, "lon": -114.96686385336886, "alt_km": 820.8492453627132, "timestamp": "2025-12-25T07:41:09.379618+00:00", "meta": {"OBJECT_NAME": "THEOS", "OBJECT_ID": "2008-049A", "EPOCH": "2025-12-24T22:35:22.902720", "MEAN_MOTION": 14.20098374, "ECCENTRICITY": 0.0001204, "INCLINATION": 98.5846, "RA_OF_ASC_NODE": 56.6699, "ARG_OF_PERICENTER": 93.5335, "MEAN_ANOMALY": 266.598, "EPHEMERIS_TYPE": 0, "CLASSIFICATION_TYPE": "U", "NORAD_CAT_ID": 33396, "ELEMENT_SET_NO": 999, "REV_AT_EPOCH": 89323, "BSTAR": 1.9296729e-05, "MEAN_MOTION_DOT": -1e-08, "MEAN_MOTION_DDOT": 0}, "tle": {"line1": "1 33396U 08049A   25358.94123730 -.00000001  00000+0  19297-4 0  9990", "line2": "2 33396  98.5846  56.6699 0001204  93.5335 266.5980 14.20098374893231"}}, "geometry": {"type": "Point", "coordinates": [-114.96686385336886, 42.63941230299359]}}, {"type": "Feature", "properties": {"norad_id": 33412, "name": "COSMO-SKYMED 3", "group": "resource", "lat": 57.37690023328568, "lon": 42.364536588501885, "alt_km": 532.8692796967789, "timestamp": "2025-12-25T07:41:09.379630+00:00", "meta": {"OBJECT_NAME": "COSMO-SKYMED 3", "OBJECT_ID": "2008-054A", "EPOCH": "2025-12-24T23:10:18.349824", "MEAN_MOTION": 15.05462841, "ECCENTRICITY": 0.00171094, "INCLINATION": 97.8453, "RA_OF_ASC_NODE": 209.5643, "ARG_OF_PERICENTER": 132.0187, "MEAN_ANOMALY": 228.2499, "EPHEMERIS_TYPE": 0, "CLASSIFICATION_TYPE": "U", "NORAD_CAT_ID": 33412, "ELEMENT_SET_NO": 999, "REV_AT_EPOCH": 93071, "BSTAR": 0.00048899538, "MEAN_MOTION_DOT": 6.985e-05, "MEAN_MOTION_DDOT": 0}, "tle": {"line1": "1 33412U 08054A   25358.96549016  .00006985  00000+0  48900-3 0  9994", "line2": "2 33412  97.8453 209.5643 0017109 132.0187 228.2499 15.05462841930712"}}, "geometry": {"type": "Point", "coordinates": [42.364536588501885, 57.37690023328568]}}, {"type": "Feature", "properties": {"norad_id": 33446, "name": "YAOGAN-4", "group": "resource", "lat": 23.779213568812093, "lon": 112.81350708542934, "alt_km": 625.1949592792107, "timestamp": "2025-12-25T07:41:09.379641+00:00", "meta": {"OBJECT_NAME": "YAOGAN-4", "OBJECT_ID": "2008-061A", "EPOCH": "2025-12-24T19:38:47.517792", "MEAN_MOTION": 14.82716251, "ECCENTRICITY": 0.00129837, "INCLINATION": 97.9197, "RA_OF_ASC_NODE": 288.8002, "ARG_OF_PERICENTER": 280.4799, "MEAN_ANOMALY": 79.4951, "EPHEMERIS_TYPE": 0, "CLASSIFICATION_TYPE": "U", "NORAD_CAT_ID": 33446, "ELEMENT_SET_NO": 999, "REV_AT_EPOCH": 91982, "BSTAR": 0.00017083405, "MEAN_MOTION_DOT": 1.327e-05, "MEAN_MOTION_DDOT": 0}, "tle": {"line1": "1 33446U 08061A   25358.81860553  .00001327  00000+0  17083-3 0  9998", "line2": "2 33446  97.9197 288.8002 0012983 280.4799  79.4951 14.82716251919825"}}, "geometry": {"type": "Point", "coordinates": [112.81350708542934, 23.779213568812093]}}]}